{"type": "FeatureCollection", "features": [{"type": "Feature", "properties": {"featurecla": "Admin-0 country", "scalerank": 1, "LABELRANK": 2, "SOVEREIGNT": "South Africa", "SOV_A3": "ZAF", "ADM0_DIF": 0, "LEVEL": 2, "TYPE": "Sovereign country", "TLC": "1", "ADMIN": "South Africa", "ADM0_A3": "ZAF", "GEOU_DIF": 0, "GEOUNIT": "South Africa", "GU_A3": "ZAF", "SU_DIF": 0, "SUBUNIT": "South Africa", "SU_A3": "ZAF", "BRK_DIFF": 0, "NAME": "South Africa", "NAME_LONG": "South Africa", "BRK_A3": "ZAF", "BRK_NAME": "South Africa", "BRK_GROUP": null, "ABBREV": "S.Af.", "POSTAL": "ZA", "FORMAL_EN": "Republic of South Africa", "FORMAL_FR": null, "NAME_CIAWF": "South Africa", "NOTE_ADM0": null, "NOTE_BRK": null, "NAME_SORT": "South Africa", "NAME_ALT": null, "MAPCOLOR7": 2, "MAPCOLOR8": 3, "MAPCOLOR9": 4, "MAPCOLOR13": 2, "POP_EST": 58558270, "POP_RANK": 16, "POP_YEAR": 2019, "GDP_MD": 351431, "GDP_YEAR": 2019, "ECONOMY": "5. Emerging region: G20", "INCOME_GRP": "3. Upper middle income", "FIPS_10": "SF", "ISO_A2": "ZA", "ISO_A2_EH": "ZA", "ISO_A3": "ZAF", "ISO_A3_EH": "ZAF", "ISO_N3": "710", "ISO_N3_EH": "710", "UN_A3": "710", "WB_A2": "ZA", "WB_A3": "ZAF", "WOE_ID": 23424942, "WOE_ID_EH": 23424942, "WOE_NOTE": "Exact WOE match as country", "ADM0_ISO": "ZAF", "ADM0_DIFF": null, "ADM0_TLC": "ZAF", "ADM0_A3_US": "ZAF", "ADM0_A3_FR": "ZAF", "ADM0_A3_RU": "ZAF", "ADM0_A3_ES": "ZAF", "ADM0_A3_CN": "ZAF", "ADM0_A3_TW": "ZAF", "ADM0_A3_IN": "ZAF", "ADM0_A3_NP": "ZAF", "ADM0_A3_PK": "ZAF", "ADM0_A3_DE": "ZAF", "ADM0_A3_GB": "ZAF", "ADM0_A3_BR": "ZAF", "ADM0_A3_IL": "ZAF", "ADM0_A3_PS": "ZAF", "ADM0_A3_SA": "ZAF", "ADM0_A3_EG": "ZAF", "ADM0_A3_MA": "ZAF", "ADM0_A3_PT": "ZAF", "ADM0_A3_AR": "ZAF", "ADM0_A3_JP": "ZAF", "ADM0_A3_KO": "ZAF", "ADM0_A3_VN": "ZAF", "ADM0_A3_TR": "ZAF", "ADM0_A3_ID": "ZAF", "ADM0_A3_PL": "ZAF", "ADM0_A3_GR": "ZAF", "ADM0_A3_IT": "ZAF", "ADM0_A3_NL": "ZAF", "ADM0_A3_SE": "ZAF", "ADM0_A3_BD": "ZAF", "ADM0_A3_UA": "ZAF", "ADM0_A3_UN": -99, "ADM0_A3_WB": -99, "CONTINENT": "Africa", "REGION_UN": "Africa", "SUBREGION": "Southern Africa", "REGION_WB": "Sub-Saharan Africa", "NAME_LEN": 12, "LONG_LEN": 12, "ABBREV_LEN": 5, "TINY": -99, "HOMEPART": 1, "MIN_ZOOM": 0, "MIN_LABEL": 1.7, "MAX_LABEL": 6.7, "LABEL_X": 23.665734, "LABEL_Y": -29.708776, "NE_ID": 1159321431, "WIKIDATAID": "Q258", "NAME_AR": "\u062c\u0646\u0648\u0628 \u0623\u0641\u0631\u064a\u0642\u064a\u0627", "NAME_BN": "\u09a6\u0995\u09cd\u09b7\u09bf\u09a3 \u0986\u09ab\u09cd\u09b0\u09bf\u0995\u09be", "NAME_DE": "S\u00fcdafrika", "NAME_EN": "South Africa", "NAME_ES": "Sud\u00e1frica", "NAME_FA": "\u0622\u0641\u0631\u06cc\u0642\u0627\u06cc \u062c\u0646\u0648\u0628\u06cc", "NAME_FR": "Afrique du Sud", "NAME_EL": "\u039d\u03cc\u03c4\u03b9\u03b1 \u0391\u03c6\u03c1\u03b9\u03ba\u03ae", "NAME_HE": "\u05d3\u05e8\u05d5\u05dd \u05d0\u05e4\u05e8\u05d9\u05e7\u05d4", "NAME_HI": "\u0926\u0915\u094d\u0937\u093f\u0923 \u0905\u092b\u093c\u094d\u0930\u0940\u0915\u093e", "NAME_HU": "D\u00e9l-afrikai K\u00f6zt\u00e1rsas\u00e1g", "NAME_ID": "Afrika Selatan", "NAME_IT": "Sudafrica", "NAME_JA": "\u5357\u30a2\u30d5\u30ea\u30ab\u5171\u548c\u56fd", "NAME_KO": "\ub0a8\uc544\ud504\ub9ac\uce74 \uacf5\ud654\uad6d", "NAME_NL": "Zuid-Afrika", "NAME_PL": "Po\u0142udniowa Afryka", "NAME_PT": "\u00c1frica do Sul", "NAME_RU": "\u042e\u0410\u0420", "NAME_SV": "Sydafrika", "NAME_TR": "G\u00fcney Afrika Cumhuriyeti", "NAME_UK": "\u041f\u0456\u0432\u0434\u0435\u043d\u043d\u043e-\u0410\u0444\u0440\u0438\u043a\u0430\u043d\u0441\u044c\u043a\u0430 \u0420\u0435\u0441\u043f\u0443\u0431\u043b\u0456\u043a\u0430", "NAME_UR": "\u062c\u0646\u0648\u0628\u06cc \u0627\u0641\u0631\u06cc\u0642\u0627", "NAME_VI": "C\u1ed9ng h\u00f2a Nam Phi", "NAME_ZH": "\u5357\u975e", "NAME_ZHT": "\u5357\u975e", "FCLASS_ISO": "Admin-0 country", "TLC_DIFF": null, "FCLASS_TLC": "Admin-0 country", "FCLASS_US": null, "FCLASS_FR": null, "FCLASS_RU": null, "FCLASS_ES": null, "FCLASS_CN": null, "FCLASS_TW": null, "FCLASS_IN": null, "FCLASS_NP": null, "FCLASS_PK": null, "FCLASS_DE": null, "FCLASS_GB": null, "FCLASS_BR": null, "FCLASS_IL": null, "FCLASS_PS": null, "FCLASS_SA": null, "FCLASS_EG": null, "FCLASS_MA": null, "FCLASS_PT": null, "FCLASS_AR": null, "FCLASS_JP": null, "FCLASS_KO": null, "FCLASS_VN": null, "FCLASS_TR": null, "FCLASS_ID": null, "FCLASS_PL": null, "FCLASS_GR": null, "FCLASS_IT": null, "FCLASS_NL": null, "FCLASS_SE": null, "FCLASS_BD": null, "FCLASS_UA": null}, "bbox": [16.344977, -34.819166, 32.83012, -22.091313], "geometry": {"type": "Polygon", "coordinates": [[[16.344977, -28.576705], [16.824017, -28.082162], [17.218929, -28.355943], [17.387497, -28.783514], [17.836152, -28.856378], [18.464899, -29.045462], [19.002127, -28.972443], [19.894734, -28.461105], [19.895768, -24.76779], [20.165726, -24.917962], [20.758609, -25.868136], [20.66647, -26.477453], [20.889609, -26.828543], [21.605896, -26.726534], [22.105969, -26.280256], [22.579532, -25.979448], [22.824271, -25.500459], [23.312097, -25.26869], [23.73357, -25.390129], [24.211267, -25.670216], [25.025171, -25.71967], [25.664666, -25.486816], [25.765849, -25.174845], [25.941652, -24.696373], [26.485753, -24.616327], [26.786407, -24.240691], [27.11941, -23.574323], [28.017236, -22.827754], [29.432188, -22.091313], [29.839037, -22.102216], [30.322883, -22.271612], [30.659865, -22.151567], [31.191409, -22.25151], [31.670398, -23.658969], [31.930589, -24.369417], [31.752408, -25.484284], [31.837778, -25.843332], [31.333158, -25.660191], [31.04408, -25.731452], [30.949667, -26.022649], [30.676609, -26.398078], [30.685962, -26.743845], [31.282773, -27.285879], [31.86806, -27.177927], [32.071665, -26.73382], [32.83012, -26.742192], [32.580265, -27.470158], [32.462133, -28.301011], [32.203389, -28.752405], [31.521001, -29.257387], [31.325561, -29.401978], [30.901763, -29.909957], [30.622813, -30.423776], [30.055716, -31.140269], [28.925553, -32.172041], [28.219756, -32.771953], [27.464608, -33.226964], [26.419452, -33.61495], [25.909664, -33.66704], [25.780628, -33.944646], [25.172862, -33.796851], [24.677853, -33.987176], [23.594043, -33.794474], [22.988189, -33.916431], [22.574157, -33.864083], [21.542799, -34.258839], [20.689053, -34.417175], [20.071261, -34.795137], [19.616405, -34.819166], [19.193278, -34.462599], [18.855315, -34.444306], [18.424643, -33.997873], [18.377411, -34.136521], [18.244499, -33.867752], [18.25008, -33.281431], [17.92519, -32.611291], [18.24791, -32.429131], [18.221762, -31.661633], [17.566918, -30.725721], [17.064416, -29.878641], [17.062918, -29.875954], [16.344977, -28.576705]], [[28.978263, -28.955597], [28.5417, -28.647502], [28.074338, -28.851469], [27.532511, -29.242711], [26.999262, -29.875954], [27.749397, -30.645106], [28.107205, -30.545732], [28.291069, -30.226217], [28.8484, -30.070051], [29.018415, -29.743766], [29.325166, -29.257387], [28.978263, -28.955597]]]}}]}